[{"OBJECT_NAME":"STARLINK-36541","OBJECT_ID":"2026-012S","EPOCH":"2026-03-09T01:46:59.300544","MEAN_MOTION":15.27612434,"ECCENTRICITY":0.00020701,"INCLINATION":43.0043,"RA_OF_ASC_NODE":318.2521,"ARG_OF_PERICENTER":275.1888,"MEAN_ANOMALY":84.8728,"EPHEMERIS_TYPE":0,"CLASSIFICATION_TYPE":"U","NORAD_CAT_ID":67509,"ELEMENT_SET_NO":999,"REV_AT_EPOCH":766,"BSTAR":0.0013492355,"MEAN_MOTION_DOT":0.0003709,"MEAN_MOTION_DDOT":0},{"OBJECT_NAME":"CZ-6A DEB","OBJECT_ID":"2022-151NB","EPOCH":"2026-03-09T18:26:17.609568","MEAN_MOTION":15.22372787,"ECCENTRICITY":0.00267955,"INCLINATION":98.6489,"RA_OF_ASC_NODE":154.0342,"ARG_OF_PERICENTER":180.4296,"MEAN_ANOMALY":179.6918,"EPHEMERIS_TYPE":0,"CLASSIFICATION_TYPE":"U","NORAD_CAT_ID":54601,"ELEMENT_SET_NO":999,"REV_AT_EPOCH":17694,"BSTAR":0.011449911,"MEAN_MOTION_DOT":0.00276508,"MEAN_MOTION_DDOT":0}]
